{
    "links": {
        "self": "http://www.neowsapp.com/rest/v1/neo/3273833?api_key=iIulBulltgU6a56xZRHN4H3l9WmuAYTsLGpBGhQ2"
    },
    "id": "3273833",
    "neo_reference_id": "3273833",
    "name": "(2005 EH94)",
    "designation": "2005 EH94",
    "nasa_jpl_url": "http://ssd.jpl.nasa.gov/sbdb.cgi?sstr=3273833",
    "absolute_magnitude_h": 23.8,
    "estimated_diameter": {
        "kilometers": {
            "estimated_diameter_min": 0.046190746,
            "estimated_diameter_max": 0.1032856481
        },
        "meters": {
            "estimated_diameter_min": 46.1907460282,
            "estimated_diameter_max": 103.2856480504
        },
        "miles": {
            "estimated_diameter_min": 0.0287015901,
            "estimated_diameter_max": 0.0641787064
        },
        "feet": {
            "estimated_diameter_min": 151.544447199,
            "estimated_diameter_max": 338.8636855496
        }
    },
    "is_potentially_hazardous_asteroid": false,
    "close_approach_data": [
        {
            "close_approach_date": "1938-03-09",
            "close_approach_date_full": "1938-Mar-09 21:15",
            "epoch_date_close_approach": -1003977900000,
            "relative_velocity": {
                "kilometers_per_second": "13.4740988249",
                "kilometers_per_hour": "48506.7557694607",
                "miles_per_hour": "30140.2116613074"
            },
            "miss_distance": {
                "astronomical": "0.1972789859",
                "lunar": "76.7415255151",
                "kilometers": "29512516.086400033",
                "miles": "18338227.1411971354"
            },
            "orbiting_body": "Earth"
        },
        {
            "close_approach_date": "1993-03-04",
            "close_approach_date_full": "1993-Mar-04 03:11",
            "epoch_date_close_approach": 731214660000,
            "relative_velocity": {
                "kilometers_per_second": "17.0576889796",
                "kilometers_per_hour": "61407.6803266752",
                "miles_per_hour": "38156.3444785388"
            },
            "miss_distance": {
                "astronomical": "0.3196966251",
                "lunar": "124.3619871639",
                "kilometers": "47825934.161148537",
                "miles": "29717657.4616503306"
            },
            "orbiting_body": "Earth"
        },
        {
            "close_approach_date": "2005-03-28",
            "close_approach_date_full": "2005-Mar-28 07:36",
            "epoch_date_close_approach": 1111995360000,
            "relative_velocity": {
                "kilometers_per_second": "6.4388612713",
                "kilometers_per_hour": "23179.9005768205",
                "miles_per_hour": "14403.0887778583"
            },
            "miss_distance": {
                "astronomical": "0.0624273315",
                "lunar": "24.2842319535",
                "kilometers": "9338995.822183905",
                "miles": "5802982.916011689"
            },
            "orbiting_body": "Earth"
        },
        {
            "close_approach_date": "2005-09-20",
            "close_approach_date_full": "2005-Sep-20 00:42",
            "epoch_date_close_approach": 1127176920000,
            "relative_velocity": {
                "kilometers_per_second": "6.4387195681",
                "kilometers_per_hour": "23179.3904450653",
                "miles_per_hour": "14402.7718018241"
            },
            "miss_distance": {
                "astronomical": "0.3577602836",
                "lunar": "139.1687503204",
                "kilometers": "53520176.397155932",
                "miles": "33255895.5168265816"
            },
            "orbiting_body": "Earth"
        }
    ],
    "orbital_data": {
        "orbit_id": "6",
        "orbit_determination_date": "2017-04-06 09:11:19",
        "first_observation_date": "2005-03-09",
        "last_observation_date": "2005-03-11",
        "data_arc_in_days": 2,
        "observations_used": 24,
        "orbit_uncertainty": "8",
        "minimum_orbit_intersection": ".0248531",
        "jupiter_tisserand_invariant": "5.211",
        "epoch_osculation": "2453440.5",
        "eccentricity": ".2652148240705858",
        "semi_major_axis": "1.214457664866499",
        "inclination": "6.147095748615083",
        "ascending_node_longitude": "348.9664449021017",
        "orbital_period": "488.8459226430777",
        "perihelion_distance": ".8923654889377557",
        "perihelion_argument": "254.8945510428731",
        "aphelion_distance": "1.536549840795242",
        "perihelion_time": "2453506.441462770527",
        "mean_anomaly": "311.4388368649189",
        "mean_motion": ".7364283577401293",
        "equinox": "J2000",
        "orbit_class": {
            "orbit_class_type": "APO",
            "orbit_class_description": "Near-Earth asteroid orbits which cross the Earth’s orbit similar to that of 1862 Apollo",
            "orbit_class_range": "a (semi-major axis) > 1.0 AU; q (perihelion) < 1.017 AU"
        }
    },
    "is_sentry_object": false
}